OBJECT_NAME,OBJECT_ID,EPOCH,MEAN_MOTION,ECCENTRICITY,INCLINATION,RA_OF_ASC_NODE,ARG_OF_PERICENTER,MEAN_ANOMALY,EPHEMERIS_TYPE,CLASSIFICATION_TYPE,NORAD_CAT_ID,ELEMENT_SET_NO,REV_AT_EPOCH,BSTAR,MEAN_MOTION_DOT,MEAN_MOTION_DDOT
H-2A R/B,2006-002B,2026-06-30T10:25:45.221952,15.18237775,.00499715,98.2577,338.4639,216.3885,143.3947,0,U,28932,999,11153,.35610741E-3,.7449E-4,0
RESURS-DK 1,2006-021A,2026-06-30T10:53:54.522528,15.13270569,.00066795,69.9341,305.2102,285.3689,74.6739,0,U,29228,999,10458,.12631885E-3,.2144E-4,0
CZ-4B R/B,2006-046C,2026-06-30T02:36:01.787328,15.17875204,.00312844,97.5441,225.6755,235.5625,124.2651,0,U,29507,999,7709,.16996193E-3,.3415E-4,0
CZ-2C R/B,2007-010B,2026-06-30T07:18:04.760928,14.20278887,.00582749,98.4111,289.0143,327.7830,31.9792,0,U,31114,999,99570,.52388507E-4,.72E-6,0
COSMO-SKYMED 1,2007-023A,2026-06-30T13:39:20.203776,14.97168254,.00015391,97.8856,13.5378,84.0270,276.1126,0,U,31598,999,3179,.17103715E-3,.1916E-4,0
COSMOS 2428,2007-029A,2026-06-30T10:52:47.800992,14.12928418,.00071265,70.9376,326.6225,109.6419,250.5471,0,U,31792,999,98002,.46633048E-4,.39E-6,0
SL-16 R/B,2007-029B,2026-06-30T11:22:00.252192,14.14853598,.0002429,70.9768,295.2989,262.3056,168.6226,0,U,31793,999,98132,-.10813465E-3,-.257E-5,0
KORONAS-FOTON,2009-003A,2026-06-30T09:55:00.584544,15.45991028,.0012584,82.4289,158.4595,106.6696,253.5935,0,U,33504,999,96314,.19222988E-3,.9438E-4,0
CZ-2C R/B,2011-030B,2026-06-30T11:49:49.190880,14.81503526,.00519007,97.8661,136.6394,344.8836,136.5279,0,U,37731,999,80679,.16667467E-3,.1282E-4,0
H-2A R/B,2012-025E,2026-06-30T11:15:51.699168,14.95778153,.00426411,98.4824,157.7101,304.5384,55.1813,0,U,38341,999,76507,.23935365E-3,.2647E-4,0
SHIJIAN-16 (SJ-16),2013-057A,2026-06-30T13:51:56.990016,14.92629537,.00164157,74.9730,331.3197,199.5508,160.5053,0,U,39358,999,68834,.13842306E-3,.14E-4,0
SL-4 R/B,2014-021B,2026-06-30T03:42:19.854144,15.42202414,.00905819,51.6043,147.2323,153.2580,207.3118,0,U,39679,999,67361,.17315912E-3,.8299E-4,0
ALOS-2,2014-029A,2026-06-30T12:43:53.090976,14.79475142,.00016106,97.9231,278.5031,88.0971,272.0425,0,U,39766,999,65355,.1481243E-3,.1055E-4,0
YAOGAN-29,2015-069A,2026-06-30T12:52:28.949952,14.83095720,.0001923,98.0022,210.1900,32.9533,327.1800,0,U,41038,999,57260,.23504075E-4,.137E-5,0
ASTRO-H (HITOMI),2016-012A,2026-06-30T13:55:57.258048,15.10571497,.00096367,31.0004,347.6868,27.3665,332.7479,0,U,41337,999,56931,.16026031E-3,.2808E-4,0
HXMT (HUIYAN),2017-034A,2026-06-30T06:57:10.180224,15.18569123,.00325325,43.0144,110.0773,229.9483,129.8511,0,U,42758,999,49965,.20167747E-3,.4058E-4,0
SAOCOM 1A,2018-076A,2026-06-30T13:41:44.116800,14.82158282,.000158,97.8879,8.1245,80.5576,279.5816,0,U,43641,999,41808,.31142446E-4,.196E-5,0
H-2A R/B,2018-084L,2026-06-30T04:58:53.844960,15.45650636,.0021959,98.8559,62.9466,355.4548,4.6494,0,U,43682,999,42313,.39100448E-3,.18923E-3,0
SAOCOM 1B,2020-059A,2026-06-30T12:49:26.663232,14.82147289,.00015575,97.8881,7.1840,82.4725,277.6665,0,U,46265,999,31546,.26750836E-4,.161E-5,0
CSS (TIANHE),2021-035A,2026-06-30T12:57:02.813760,15.61373539,.00086636,41.4679,240.7098,186.6866,173.3859,0,U,48274,999,29525,.21020484E-3,.18161E-3,0
COSMOS 2550,2021-056A,2026-06-30T14:05:38.080320,15.33853737,.00083618,67.1435,59.3720,269.1700,90.8497,0,U,48865,999,28077,.15470664E-3,.4905E-4,0
CZ-2C R/B,2022-058K,2026-06-30T00:49:18.237504,15.62747696,.00316203,50.1860,96.6276,320.4075,39.4590,0,U,52794,999,22765,.40755995E-3,.37988E-3,0
CZ-2C R/B,2022-132E,2026-06-30T00:12:48.480480,15.73080866,.0013156,97.2890,188.6182,42.7723,317.4562,0,U,54039,999,20796,.51238168E-3,.70629E-3,0
GSLV R/B,2022-138AN,2026-06-30T08:24:58.029696,14.97318674,.0024133,87.3817,128.5642,100.4162,259.9792,0,U,54149,999,20078,.20772261E-3,.2452E-4,0
XRISM,2023-137A,2026-06-30T14:05:29.480064,15.12578200,.0007736,31.0022,272.7976,99.0676,261.0838,0,U,57800,999,15489,.24340819E-3,.4453E-4,0
ACS3,2024-077B,2026-06-30T08:04:58.449504,13.94555943,.010442,97.1700,97.2009,52.7337,308.3297,0,U,59588,999,10987,.78637348E-2,.10972E-3,0
CZ-8A R/B,2025-231K,2026-06-29T20:08:10.912416,14.30158247,.01164898,50.0055,345.4899,268.5477,90.2092,0,U,66004,999,3675,.62134007E-4,.11E-6,0
SZ-21 MODULE,2025-246C,2026-06-30T12:21:40.428864,15.77532205,.0004988,41.4700,224.2498,103.9916,256.1484,0,U,66515,999,3584,.24276765E-3,.41495E-3,0
