H-2A R/B                
1 28932U 06002B   26181.43455118  .00007449  00000+0  35611-3 0  9993
2 28932  98.2577 338.4639 0049971 216.3885 143.3947 15.18237775111531
RESURS-DK 1             
1 29228U 06021A   26181.45410327  .00002144  00000+0  12632-3 0  9993
2 29228  69.9341 305.2102 0006679 285.3689  74.6739 15.13270569104582
CZ-4B R/B               
1 29507U 06046C   26181.10835402  .00003415  00000+0  16996-3 0  9996
2 29507  97.5441 225.6755 0031284 235.5625 124.2651 15.17875204 77097
CZ-2C R/B               
1 31114U 07010B   26181.30422177  .00000072  00000+0  52389-4 0  9991
2 31114  98.4111 289.0143 0058274 327.7830  31.9792 14.20278887995707
COSMO-SKYMED 1          
1 31598U 07023A   26181.56898384  .00001916  00000+0  17104-3 0  9999
2 31598  97.8856  13.5378 0001539  84.0270 276.1126 14.97168254 31799
COSMOS 2428             
1 31792U 07029A   26181.45333103  .00000039  00000+0  46633-4 0  9997
2 31792  70.9376 326.6225 0007126 109.6419 250.5471 14.12928418980021
SL-16 R/B               
1 31793U 07029B   26181.47361403 -.00000257  00000+0 -10813-3 0  9998
2 31793  70.9768 295.2989 0002429 262.3056 168.6226 14.14853598981329
KORONAS-FOTON           
1 33504U 09003A   26181.41320121  .00009438  00000+0  19223-3 0  9992
2 33504  82.4289 158.4595 0012584 106.6696 253.5935 15.45991028963140
CZ-2C R/B               
1 37731U 11030B   26181.49293045  .00001282  00000+0  16667-3 0  9991
2 37731  97.8661 136.6394 0051900 344.8836 136.5279 14.81503526806791
H-2A R/B                
1 38341U 12025E   26181.46934837  .00002647  00000+0  23935-3 0  9994
2 38341  98.4824 157.7101 0042641 304.5384  55.1813 14.95778153765070
SHIJIAN-16 (SJ-16)      
1 39358U 13057A   26181.57774294  .00001400  00000+0  13842-3 0  9992
2 39358  74.9730 331.3197 0016415 199.5508 160.5053 14.92629537688348
SL-4 R/B                
1 39679U 14021B   26181.15439646  .00008299  00000+0  17316-3 0  9996
2 39679  51.6043 147.2323 0090581 153.2580 207.3118 15.42202414673614
ALOS-2                  
1 39766U 14029A   26181.53047559  .00001055  00000+0  14812-3 0  9992
2 39766  97.9231 278.5031 0001610  88.0971 272.0425 14.79475142653551
YAOGAN-29               
1 41038U 15069A   26181.53644618  .00000137  00000+0  23504-4 0  9990
2 41038  98.0022 210.1900 0001923  32.9533 327.1800 14.83095720572602
ASTRO-H (HITOMI)        
1 41337U 16012A   26181.58052382  .00002808  00000+0  16026-3 0  9994
2 41337  31.0004 347.6868 0009636  27.3665 332.7479 15.10571497569312
HXMT (HUIYAN)           
1 42758U 17034A   26181.28970116  .00004058  00000+0  20168-3 0  9999
2 42758  43.0144 110.0773 0032532 229.9483 129.8511 15.18569123499656
SAOCOM 1A               
1 43641U 18076A   26181.57064950  .00000196  00000+0  31142-4 0  9994
2 43641  97.8879   8.1245 0001580  80.5576 279.5816 14.82158282418083
H-2A R/B                
1 43682U 18084L   26181.20756765  .00018923  00000+0  39100-3 0  9998
2 43682  98.8559  62.9466 0021959 355.4548   4.6494 15.45650636423133
SAOCOM 1B               
1 46265U 20059A   26181.53433638  .00000161  00000+0  26751-4 0  9994
2 46265  97.8881   7.1840 0001557  82.4725 277.6665 14.82147289315466
CSS (TIANHE)            
1 48274U 21035A   26181.53961590  .00018161  00000+0  21020-3 0  9996
2 48274  41.4679 240.7098 0008663 186.6866 173.3859 15.61373539295254
COSMOS 2550             
1 48865U 21056A   26181.58724630  .00004905  00000+0  15471-3 0  9996
2 48865  67.1435  59.3720 0008361 269.1700  90.8497 15.33853737280774
CZ-2C R/B               
1 52794U 22058K   26181.03423886  .00037988  00000+0  40756-3 0  9995
2 52794  50.1860  96.6276 0031620 320.4075  39.4590 15.62747696227653
CZ-2C R/B               
1 54039U 22132E   26181.00889445  .00070629  00000+0  51238-3 0  9992
2 54039  97.2890 188.6182 0013156  42.7723 317.4562 15.73080866207969
GSLV R/B                
1 54149U 22138AN  26181.35067164  .00002452  00000+0  20772-3 0  9992
2 54149  87.3817 128.5642 0024133 100.4162 259.9792 14.97318674200784
XRISM                   
1 57800U 23137A   26181.58714676  .00004453  00000+0  24341-3 0  9990
2 57800  31.0022 272.7976 0007736  99.0676 261.0838 15.12578200154896
ACS3                    
1 59588U 24077B   26181.33678761  .00010972  00000+0  78637-2 0  9995
2 59588  97.1700  97.2009 0104420  52.7337 308.3297 13.94555943109871
CZ-8A R/B               
1 66004U 25231K   26180.83901519  .00000011  00000+0  62134-4 0  9993
2 66004  50.0055 345.4899 0116489 268.5477  90.2092 14.30158247 36751
SZ-21 MODULE            
1 66515U 25246C   26181.51505126  .00041495  00000+0  24277-3 0  9992
2 66515  41.4700 224.2498 0004988 103.9916 256.1484 15.77532205 35847
